{
  "type": "FeatureCollection",
  "features": [
    {
      "type": "Feature",
      "properties": {
        "norad_id": 34314,
        "name": "COSMOS 2251 DEB",
        "group": "cosmos-2251-debris",
        "lat": 69.89436243337816,
        "lon": 94.35866990264005,
        "alt_km": 761.7274885869929,
        "timestamp": "2025-12-02T21:34:01.664689+00:00",
        "meta_object_name": "COSMOS 2251 DEB",
        "meta_object_id": "1993-036NL",
        "meta_epoch": "2025-12-02T09:59:36.400992",
        "meta_mean_motion": 14.173813,
        "meta_eccentricity": 0.0102512,
        "meta_inclination": 74.0053,
        "meta_ra_of_asc_node": 326.806,
        "meta_arg_of_pericenter": 75.1233,
        "meta_mean_anomaly": 86.9568,
        "meta_ephemeris_type": 0,
        "meta_classification_type": "U",
        "meta_norad_cat_id": 34314,
        "meta_element_set_no": 999,
        "meta_rev_at_epoch": 86511,
        "meta_bstar": 0.0007433,
        "meta_mean_motion_dot": 1.56e-05,
        "meta_mean_motion_ddot": 0,
        "tle_line1": "1 34314U 93036NL  25336.41639353  .00001560  00000+0  74330-3 0  9990",
        "tle_line2": "2 34314  74.0053 326.8060 0102512  75.1233  86.9568 14.17381300865114"
      },
      "geometry": {
        "type": "Point",
        "coordinates": [
          94.35866990264005,
          69.89436243337816
        ]
      }
    },
    {
      "type": "Feature",
      "properties": {
        "norad_id": 34316,
        "name": "COSMOS 2251 DEB",
        "group": "cosmos-2251-debris",
        "lat": -7.188158772511988,
        "lon": 178.66231612829387,
        "alt_km": 598.2854752645171,
        "timestamp": "2025-12-02T21:34:01.664699+00:00",
        "meta_object_name": "COSMOS 2251 DEB",
        "meta_object_id": "1993-036NN",
        "meta_epoch": "2025-12-02T11:04:14.632608",
        "meta_mean_motion": 14.91333967,
        "meta_eccentricity": 0.0007832,
        "meta_inclination": 74.0655,
        "meta_ra_of_asc_node": 357.4723,
        "meta_arg_of_pericenter": 87.8218,
        "meta_mean_anomaly": 272.3861,
        "meta_ephemeris_type": 0,
        "meta_classification_type": "U",
        "meta_norad_cat_id": 34316,
        "meta_element_set_no": 999,
        "meta_rev_at_epoch": 89056,
        "meta_bstar": 0.0018347,
        "meta_mean_motion_dot": 0.00018316,
        "meta_mean_motion_ddot": 0,
        "tle_line1": "1 34316U 93036NN  25336.46128047  .00018316  00000+0  18347-2 0  9992",
        "tle_line2": "2 34316  74.0655 357.4723 0007832  87.8218 272.3861 14.91333967890564"
      },
      "geometry": {
        "type": "Point",
        "coordinates": [
          178.66231612829387,
          -7.188158772511988
        ]
      }
    },
    {
      "type": "Feature",
      "properties": {
        "norad_id": 34317,
        "name": "COSMOS 2251 DEB",
        "group": "cosmos-2251-debris",
        "lat": 73.70701249747214,
        "lon": 151.38666629168037,
        "alt_km": 843.4540229258719,
        "timestamp": "2025-12-02T21:34:01.664709+00:00",
        "meta_object_name": "COSMOS 2251 DEB",
        "meta_object_id": "1993-036NP",
        "meta_epoch": "2025-12-02T07:21:35.494848",
        "meta_mean_motion": 13.65108572,
        "meta_eccentricity": 0.0336262,
        "meta_inclination": 73.9249,
        "meta_ra_of_asc_node": 52.9322,
        "meta_arg_of_pericenter": 44.2362,
        "meta_mean_anomaly": 17.4278,
        "meta_ephemeris_type": 0,
        "meta_classification_type": "U",
        "meta_norad_cat_id": 34317,
        "meta_element_set_no": 999,
        "meta_rev_at_epoch": 83477,
        "meta_bstar": 0.0004958,
        "meta_mean_motion_dot": 5.7e-06,
        "meta_mean_motion_ddot": 0,
        "tle_line1": "1 34317U 93036NP  25336.30666082  .00000570  00000+0  49580-3 0  9999",
        "tle_line2": "2 34317  73.9249  52.9322 0336262  44.2362  17.4278 13.65108572834776"
      },
      "geometry": {
        "type": "Point",
        "coordinates": [
          151.38666629168037,
          73.70701249747214
        ]
      }
    },
    {
      "type": "Feature",
      "properties": {
        "norad_id": 34321,
        "name": "COSMOS 2251 DEB",
        "group": "cosmos-2251-debris",
        "lat": 7.652076982329932,
        "lon": 177.05552479726833,
        "alt_km": 722.2696718796287,
        "timestamp": "2025-12-02T21:34:01.664719+00:00",
        "meta_object_name": "COSMOS 2251 DEB",
        "meta_object_id": "1993-036NT",
        "meta_epoch": "2025-12-02T00:42:43.041312",
        "meta_mean_motion": 14.4998246,
        "meta_eccentricity": 0.00155976,
        "meta_inclination": 74.0279,
        "meta_ra_of_asc_node": 176.4821,
        "meta_arg_of_pericenter": 306.6606,
        "meta_mean_anomaly": 207.1502,
        "meta_ephemeris_type": 0,
        "meta_classification_type": "U",
        "meta_norad_cat_id": 34321,
        "meta_element_set_no": 999,
        "meta_rev_at_epoch": 88331,
        "meta_bstar": 0.00058767563,
        "meta_mean_motion_dot": 2.251e-05,
        "meta_mean_motion_ddot": 0,
        "tle_line1": "1 34321U 93036NT  25336.02966483  .00002251  00000+0  58768-3 0  9997",
        "tle_line2": "2 34321  74.0279 176.4821 0015597 306.6606 207.1502 14.49982460883314"
      },
      "geometry": {
        "type": "Point",
        "coordinates": [
          177.05552479726833,
          7.652076982329932
        ]
      }
    },
    {
      "type": "Feature",
      "properties": {
        "norad_id": 34323,
        "name": "COSMOS 2251 DEB",
        "group": "cosmos-2251-debris",
        "lat": -64.1980386867393,
        "lon": -1.0414917149334355,
        "alt_km": 634.4497842752198,
        "timestamp": "2025-12-02T21:34:01.664729+00:00",
        "meta_object_name": "COSMOS 2251 DEB",
        "meta_object_id": "1993-036NV",
        "meta_epoch": "2025-12-02T12:33:04.176000",
        "meta_mean_motion": 14.73856384,
        "meta_eccentricity": 0.006121,
        "meta_inclination": 73.9521,
        "meta_ra_of_asc_node": 143.1551,
        "meta_arg_of_pericenter": 189.4395,
        "meta_mean_anomaly": 227.0128,
        "meta_ephemeris_type": 0,
        "meta_classification_type": "U",
        "meta_norad_cat_id": 34323,
        "meta_element_set_no": 999,
        "meta_rev_at_epoch": 88289,
        "meta_bstar": 0.0030252,
        "meta_mean_motion_dot": 0.00020451,
        "meta_mean_motion_ddot": 0,
        "tle_line1": "1 34323U 93036NV  25336.52296500  .00020451  00000+0  30252-2 0  9999",
        "tle_line2": "2 34323  73.9521 143.1551 0061210 189.4395 227.0128 14.73856384882899"
      },
      "geometry": {
        "type": "Point",
        "coordinates": [
          -1.0414917149334355,
          -64.1980386867393
        ]
      }
    },
    {
      "type": "Feature",
      "properties": {
        "norad_id": 34325,
        "name": "COSMOS 2251 DEB",
        "group": "cosmos-2251-debris",
        "lat": 48.91292038677687,
        "lon": -130.47392833098678,
        "alt_km": 1014.0808151160527,
        "timestamp": "2025-12-02T21:34:01.664740+00:00",
        "meta_object_name": "COSMOS 2251 DEB",
        "meta_object_id": "1993-036NX",
        "meta_epoch": "2025-12-02T10:13:13.033056",
        "meta_mean_motion": 14.04371531,
        "meta_eccentricity": 0.0193331,
        "meta_inclination": 73.8715,
        "meta_ra_of_asc_node": 210.9778,
        "meta_arg_of_pericenter": 230.3351,
        "meta_mean_anomaly": 312.1496,
        "meta_ephemeris_type": 0,
        "meta_classification_type": "U",
        "meta_norad_cat_id": 34325,
        "meta_element_set_no": 999,
        "meta_rev_at_epoch": 85370,
        "meta_bstar": 0.0019874,
        "meta_mean_motion_dot": 3.712e-05,
        "meta_mean_motion_ddot": 0,
        "tle_line1": "1 34325U 93036NX  25336.42584529  .00003712  00000+0  19874-2 0  9999",
        "tle_line2": "2 34325  73.8715 210.9778 0193331 230.3351 312.1496 14.04371531853709"
      },
      "geometry": {
        "type": "Point",
        "coordinates": [
          -130.47392833098678,
          48.91292038677687
        ]
      }
    },
    {
      "type": "Feature",
      "properties": {
        "norad_id": 34327,
        "name": "COSMOS 2251 DEB",
        "group": "cosmos-2251-debris",
        "lat": 61.52535418470714,
        "lon": -20.358990223162028,
        "alt_km": 600.5523478149735,
        "timestamp": "2025-12-02T21:34:01.664750+00:00",
        "meta_object_name": "COSMOS 2251 DEB",
        "meta_object_id": "1993-036NZ",
        "meta_epoch": "2025-12-02T00:46:06.102912",
        "meta_mean_motion": 14.88804123,
        "meta_eccentricity": 0.00322351,
        "meta_inclination": 73.9945,
        "meta_ra_of_asc_node": 193.3287,
        "meta_arg_of_pericenter": 12.004,
        "meta_mean_anomaly": 138.5821,
        "meta_ephemeris_type": 0,
        "meta_classification_type": "U",
        "meta_norad_cat_id": 34327,
        "meta_element_set_no": 999,
        "meta_rev_at_epoch": 89348,
        "meta_bstar": 0.0013264812,
        "meta_mean_motion_dot": 0.00012526,
        "meta_mean_motion_ddot": 0,
        "tle_line1": "1 34327U 93036NZ  25336.03201508  .00012526  00000+0  13265-2 0  9992",
        "tle_line2": "2 34327  73.9945 193.3287 0032235  12.0040 138.5821 14.88804123893482"
      },
      "geometry": {
        "type": "Point",
        "coordinates": [
          -20.358990223162028,
          61.52535418470714
        ]
      }
    }
  ]
}